TRANSPORTER-15L         
1 66676U 25276L   25357.10218698 -.00345072  00000+0 -18711-1 0  9991
2 66676  97.4387  68.6557 0000762 225.8632 134.2538 15.16252103  3691
TRANSPORTER-15M         
1 66677U 25276M   25356.76266572  .01076501  00000+0  44794-1 0  9994
2 66677  97.4384  68.3422 0010554 242.2487 117.7678 15.21134629  3642
TRANSPORTER-15N         
1 66678U 25276N   25357.16742872 -.00004864  00000+0 -24439-3 0  9992
2 66678  97.4429  68.7316 0004440 250.9249 109.1504 15.16820662  3701
TRANSPORTER-15P         
1 66679U 25276P   25356.70689617  .00004846  00000+0  25077-3 0  9996
2 66679  97.4366  68.2598 0004656 258.8192 101.2518 15.16688876  3631
TRANSPORTER-15Q         
1 66680U 25276Q   25357.16723500  .00009916  00000+0  50717-3 0  9991
2 66680  97.4411  68.7284 0004934 249.8014 110.2689 15.16832179  3707
TRANSPORTER-15R         
1 66681U 25276R   25357.16205958  .00019195  00000+0  96038-3 0  9990
2 66681  97.4334  68.7120 0005003 273.8299  86.2363 15.17447983  3708
TRANSPORTER-15S         
1 66682U 25276S   25357.16440426 -.00007439  00000+0 -37266-3 0  9990
2 66682  97.4447  68.7434 0004299 246.9739 113.1041 15.17100244  3707
TRANSPORTER-15T         
1 66683U 25276T   25357.16524339  .00011125  00000+0  56541-3 0  9999
2 66683  97.4447  68.7427 0004728 241.8266 118.2490 15.17024898  3700
TRANSPORTER-15U         
1 66684U 25276U   25357.16204074  .00013981  00000+0  70349-3 0  9995
2 66684  97.4473  68.7541 0004582 239.1089 120.9694 15.17321986  3702
TRANSPORTER-15V         
1 66685U 25276V   25357.16070995  .00016085  00000+0  80523-3 0  9992
2 66685  97.4418  68.7388 0004108 262.4979  97.5788 15.17470887  3700
TRANSPORTER-15W         
1 66686U 25276W   25357.16431139  .01174743  00000+0  52656-1 0  9995
2 66686  97.4450  68.7391 0005854 311.4119  48.6611 15.18316580  3703
TRANSPORTER-15X         
1 66687U 25276X   25357.16987427  .00014237  00000+0  72845-3 0  9996
2 66687  97.4386  68.7158 0008157  53.6509 306.5476 15.16709211  3700
