CCSDS_OMM_VERS = 2.0
CREATION_DATE  = 
ORIGINATOR     = 

OBJECT_NAME    = TRANSPORTER-15L
OBJECT_ID      = 2025-276L
CENTER_NAME    = EARTH
REF_FRAME      = TEME
TIME_SYSTEM    = UTC
MEAN_ELEMENT_THEORY = SGP/SGP4

EPOCH          = 2025-12-23T02:27:08.955072
MEAN_MOTION    = 15.16252103
ECCENTRICITY   = .00007623
INCLINATION    = 97.4387
RA_OF_ASC_NODE = 68.6557
ARG_OF_PERICENTER = 225.8632
MEAN_ANOMALY   = 134.2538

EPHEMERIS_TYPE = 0
CLASSIFICATION_TYPE = U
NORAD_CAT_ID   = 66676
ELEMENT_SET_NO = 999
REV_AT_EPOCH   = 369
BSTAR          = -.18710669E-1
MEAN_MOTION_DOT = -.345072E-2
MEAN_MOTION_DDOT = 0

CCSDS_OMM_VERS = 2.0
CREATION_DATE  = 
ORIGINATOR     = 

OBJECT_NAME    = TRANSPORTER-15M
OBJECT_ID      = 2025-276M
CENTER_NAME    = EARTH
REF_FRAME      = TEME
TIME_SYSTEM    = UTC
MEAN_ELEMENT_THEORY = SGP/SGP4

EPOCH          = 2025-12-22T18:18:14.318208
MEAN_MOTION    = 15.21134629
ECCENTRICITY   = .00105541
INCLINATION    = 97.4384
RA_OF_ASC_NODE = 68.3422
ARG_OF_PERICENTER = 242.2487
MEAN_ANOMALY   = 117.7678

EPHEMERIS_TYPE = 0
CLASSIFICATION_TYPE = U
NORAD_CAT_ID   = 66677
ELEMENT_SET_NO = 999
REV_AT_EPOCH   = 364
BSTAR          = .44794033E-1
MEAN_MOTION_DOT = .1076501E-1
MEAN_MOTION_DDOT = 0

CCSDS_OMM_VERS = 2.0
CREATION_DATE  = 
ORIGINATOR     = 

OBJECT_NAME    = TRANSPORTER-15N
OBJECT_ID      = 2025-276N
CENTER_NAME    = EARTH
REF_FRAME      = TEME
TIME_SYSTEM    = UTC
MEAN_ELEMENT_THEORY = SGP/SGP4

EPOCH          = 2025-12-23T04:01:05.841408
MEAN_MOTION    = 15.16820662
ECCENTRICITY   = .00044399
INCLINATION    = 97.4429
RA_OF_ASC_NODE = 68.7316
ARG_OF_PERICENTER = 250.9249
MEAN_ANOMALY   = 109.1504

EPHEMERIS_TYPE = 0
CLASSIFICATION_TYPE = U
NORAD_CAT_ID   = 66678
ELEMENT_SET_NO = 999
REV_AT_EPOCH   = 370
BSTAR          = -.24438781E-3
MEAN_MOTION_DOT = -.4864E-4
MEAN_MOTION_DDOT = 0

CCSDS_OMM_VERS = 2.0
CREATION_DATE  = 
ORIGINATOR     = 

OBJECT_NAME    = TRANSPORTER-15P
OBJECT_ID      = 2025-276P
CENTER_NAME    = EARTH
REF_FRAME      = TEME
TIME_SYSTEM    = UTC
MEAN_ELEMENT_THEORY = SGP/SGP4

EPOCH          = 2025-12-22T16:57:55.829088
MEAN_MOTION    = 15.16688876
ECCENTRICITY   = .00046567
INCLINATION    = 97.4366
RA_OF_ASC_NODE = 68.2598
ARG_OF_PERICENTER = 258.8192
MEAN_ANOMALY   = 101.2518

EPHEMERIS_TYPE = 0
CLASSIFICATION_TYPE = U
NORAD_CAT_ID   = 66679
ELEMENT_SET_NO = 999
REV_AT_EPOCH   = 363
BSTAR          = .25077063E-3
MEAN_MOTION_DOT = .4846E-4
MEAN_MOTION_DDOT = 0

CCSDS_OMM_VERS = 2.0
CREATION_DATE  = 
ORIGINATOR     = 

OBJECT_NAME    = TRANSPORTER-15Q
OBJECT_ID      = 2025-276Q
CENTER_NAME    = EARTH
REF_FRAME      = TEME
TIME_SYSTEM    = UTC
MEAN_ELEMENT_THEORY = SGP/SGP4

EPOCH          = 2025-12-23T04:00:49.104000
MEAN_MOTION    = 15.16832179
ECCENTRICITY   = .00049338
INCLINATION    = 97.4411
RA_OF_ASC_NODE = 68.7284
ARG_OF_PERICENTER = 249.8014
MEAN_ANOMALY   = 110.2689

EPHEMERIS_TYPE = 0
CLASSIFICATION_TYPE = U
NORAD_CAT_ID   = 66680
ELEMENT_SET_NO = 999
REV_AT_EPOCH   = 370
BSTAR          = .5071714E-3
MEAN_MOTION_DOT = .9916E-4
MEAN_MOTION_DDOT = 0

CCSDS_OMM_VERS = 2.0
CREATION_DATE  = 
ORIGINATOR     = 

OBJECT_NAME    = TRANSPORTER-15R
OBJECT_ID      = 2025-276R
CENTER_NAME    = EARTH
REF_FRAME      = TEME
TIME_SYSTEM    = UTC
MEAN_ELEMENT_THEORY = SGP/SGP4

EPOCH          = 2025-12-23T03:53:21.948576
MEAN_MOTION    = 15.17447983
ECCENTRICITY   = .00050029
INCLINATION    = 97.4334
RA_OF_ASC_NODE = 68.7120
ARG_OF_PERICENTER = 273.8299
MEAN_ANOMALY   = 86.2363

EPHEMERIS_TYPE = 0
CLASSIFICATION_TYPE = U
NORAD_CAT_ID   = 66681
ELEMENT_SET_NO = 999
REV_AT_EPOCH   = 370
BSTAR          = .9603796E-3
MEAN_MOTION_DOT = .19195E-3
MEAN_MOTION_DDOT = 0

CCSDS_OMM_VERS = 2.0
CREATION_DATE  = 
ORIGINATOR     = 

OBJECT_NAME    = TRANSPORTER-15S
OBJECT_ID      = 2025-276S
CENTER_NAME    = EARTH
REF_FRAME      = TEME
TIME_SYSTEM    = UTC
MEAN_ELEMENT_THEORY = SGP/SGP4

EPOCH          = 2025-12-23T03:56:44.528928
MEAN_MOTION    = 15.17100244
ECCENTRICITY   = .00042989
INCLINATION    = 97.4447
RA_OF_ASC_NODE = 68.7434
ARG_OF_PERICENTER = 246.9739
MEAN_ANOMALY   = 113.1041

EPHEMERIS_TYPE = 0
CLASSIFICATION_TYPE = U
NORAD_CAT_ID   = 66682
ELEMENT_SET_NO = 999
REV_AT_EPOCH   = 370
BSTAR          = -.37266233E-3
MEAN_MOTION_DOT = -.7439E-4
MEAN_MOTION_DDOT = 0

CCSDS_OMM_VERS = 2.0
CREATION_DATE  = 
ORIGINATOR     = 

OBJECT_NAME    = TRANSPORTER-15T
OBJECT_ID      = 2025-276T
CENTER_NAME    = EARTH
REF_FRAME      = TEME
TIME_SYSTEM    = UTC
MEAN_ELEMENT_THEORY = SGP/SGP4

EPOCH          = 2025-12-23T03:57:57.029760
MEAN_MOTION    = 15.17024898
ECCENTRICITY   = .00047276
INCLINATION    = 97.4447
RA_OF_ASC_NODE = 68.7427
ARG_OF_PERICENTER = 241.8266
MEAN_ANOMALY   = 118.2490

EPHEMERIS_TYPE = 0
CLASSIFICATION_TYPE = U
NORAD_CAT_ID   = 66683
ELEMENT_SET_NO = 999
REV_AT_EPOCH   = 370
BSTAR          = .56540544E-3
MEAN_MOTION_DOT = .11125E-3
MEAN_MOTION_DDOT = 0

CCSDS_OMM_VERS = 2.0
CREATION_DATE  = 
ORIGINATOR     = 

OBJECT_NAME    = TRANSPORTER-15U
OBJECT_ID      = 2025-276U
CENTER_NAME    = EARTH
REF_FRAME      = TEME
TIME_SYSTEM    = UTC
MEAN_ELEMENT_THEORY = SGP/SGP4

EPOCH          = 2025-12-23T03:53:20.320800
MEAN_MOTION    = 15.17321986
ECCENTRICITY   = .00045823
INCLINATION    = 97.4473
RA_OF_ASC_NODE = 68.7541
ARG_OF_PERICENTER = 239.1089
MEAN_ANOMALY   = 120.9694

EPHEMERIS_TYPE = 0
CLASSIFICATION_TYPE = U
NORAD_CAT_ID   = 66684
ELEMENT_SET_NO = 999
REV_AT_EPOCH   = 370
BSTAR          = .70349186E-3
MEAN_MOTION_DOT = .13981E-3
MEAN_MOTION_DDOT = 0

CCSDS_OMM_VERS = 2.0
CREATION_DATE  = 
ORIGINATOR     = 

OBJECT_NAME    = TRANSPORTER-15V
OBJECT_ID      = 2025-276V
CENTER_NAME    = EARTH
REF_FRAME      = TEME
TIME_SYSTEM    = UTC
MEAN_ELEMENT_THEORY = SGP/SGP4

EPOCH          = 2025-12-23T03:51:25.340544
MEAN_MOTION    = 15.17470887
ECCENTRICITY   = .00041077
INCLINATION    = 97.4418
RA_OF_ASC_NODE = 68.7388
ARG_OF_PERICENTER = 262.4979
MEAN_ANOMALY   = 97.5788

EPHEMERIS_TYPE = 0
CLASSIFICATION_TYPE = U
NORAD_CAT_ID   = 66685
ELEMENT_SET_NO = 999
REV_AT_EPOCH   = 370
BSTAR          = .80523183E-3
MEAN_MOTION_DOT = .16085E-3
MEAN_MOTION_DDOT = 0

CCSDS_OMM_VERS = 2.0
CREATION_DATE  = 
ORIGINATOR     = 

OBJECT_NAME    = TRANSPORTER-15W
OBJECT_ID      = 2025-276W
CENTER_NAME    = EARTH
REF_FRAME      = TEME
TIME_SYSTEM    = UTC
MEAN_ELEMENT_THEORY = SGP/SGP4

EPOCH          = 2025-12-23T03:56:36.504096
MEAN_MOTION    = 15.18316580
ECCENTRICITY   = .00058538
INCLINATION    = 97.4450
RA_OF_ASC_NODE = 68.7391
ARG_OF_PERICENTER = 311.4119
MEAN_ANOMALY   = 48.6611

EPHEMERIS_TYPE = 0
CLASSIFICATION_TYPE = U
NORAD_CAT_ID   = 66686
ELEMENT_SET_NO = 999
REV_AT_EPOCH   = 370
BSTAR          = .5265621E-1
MEAN_MOTION_DOT = .1174743E-1
MEAN_MOTION_DDOT = 0

CCSDS_OMM_VERS = 2.0
CREATION_DATE  = 
ORIGINATOR     = 

OBJECT_NAME    = TRANSPORTER-15X
OBJECT_ID      = 2025-276X
CENTER_NAME    = EARTH
REF_FRAME      = TEME
TIME_SYSTEM    = UTC
MEAN_ELEMENT_THEORY = SGP/SGP4

EPOCH          = 2025-12-23T04:04:37.137792
MEAN_MOTION    = 15.16709211
ECCENTRICITY   = .00081569
INCLINATION    = 97.4386
RA_OF_ASC_NODE = 68.7158
ARG_OF_PERICENTER = 53.6509
MEAN_ANOMALY   = 306.5476

EPHEMERIS_TYPE = 0
CLASSIFICATION_TYPE = U
NORAD_CAT_ID   = 66687
ELEMENT_SET_NO = 999
REV_AT_EPOCH   = 370
BSTAR          = .72844936E-3
MEAN_MOTION_DOT = .14237E-3
MEAN_MOTION_DDOT = 0

